GLOBALSTAR M063         
1 26081U 00008A   26003.22713060 -.00000063  00000+0  28676-3 0  9998
2 26081  51.9976 304.7356 0004902 343.5914 160.6232 11.86178675181312
GLOBALSTAR M062         
1 26082U 00008B   26003.90474236  .00000056  00000+0  11019-2 0  9996
2 26082  51.9829 225.5264 0006934 171.5001 201.5553 12.43481506521594
GLOBALSTAR M060         
1 26083U 00008C   26003.83525743 -.00000129  00000+0 -38109-3 0  9992
2 26083  51.9993 214.1271 0003357 151.8896 221.3251 12.17671990176813
GLOBALSTAR M064         
1 26084U 00008D   26003.46810631 -.00000085  00000+0 -18704-4 0  9996
2 26084  52.0050  40.5667 0001661  93.0502 267.0521 11.88539670190916
GLOBALSTAR M065         
1 31571U 07020A   25351.59775860 -.00000114  00000+0 -59491-4 0  9998
2 31571  51.9915  28.0181 0009699 356.5964 173.4742 12.62015524856566
GLOBALSTAR M069         
1 31573U 07020C   26003.97057978 -.00000053  00000+0  36243-3 0  9990
2 31573  52.0059 356.9225 0001756 164.5913 211.8086 12.23465909858707
GLOBALSTAR M072         
1 31574U 07020D   26003.65283256 -.00000080  00000+0  52765-4 0  9994
2 31574  51.9906 178.2809 0001489  44.7988  35.2028 11.91655105855360
GLOBALSTAR M071         
1 31576U 07020F   26003.50969486 -.00000080  00000+0  10970-3 0  9997
2 31576  52.0081  29.4917 0001079 148.3547  18.5472 12.18263291519356
